{
  "type": "FeatureCollection",
  "features": [
    {
      "type": "Feature",
      "properties": {
        "norad_id": 41599,
        "name": "CARTOSAT-2C",
        "group": "resource",
        "lat": -66.6844669630166,
        "lon": -140.15286011080585,
        "alt_km": 520.2066515402603,
        "timestamp": "2025-12-26T11:25:44.876706+00:00",
        "meta_object_name": "CARTOSAT-2C",
        "meta_object_id": "2016-040A",
        "meta_epoch": "2025-12-26T04:01:06.194784",
        "meta_mean_motion": 15.19238133,
        "meta_eccentricity": 0.0010579,
        "meta_inclination": 97.4746,
        "meta_ra_of_asc_node": 57.2776,
        "meta_arg_of_pericenter": 20.1783,
        "meta_mean_anomaly": 339.9868,
        "meta_ephemeris_type": 0,
        "meta_classification_type": "U",
        "meta_norad_cat_id": 41599,
        "meta_element_set_no": 999,
        "meta_rev_at_epoch": 52744,
        "meta_bstar": 0.00020994,
        "meta_mean_motion_dot": 4.36e-05,
        "meta_mean_motion_ddot": 0,
        "tle_line1": "1 41599U 16040A   25360.16743281  .00004360  00000+0  20994-3 0  9996",
        "tle_line2": "2 41599  97.4746  57.2776 0010579  20.1783 339.9868 15.19238133527448"
      },
      "geometry": {
        "type": "Point",
        "coordinates": [
          -140.15286011080585,
          -66.6844669630166
        ]
      }
    },
    {
      "type": "Feature",
      "properties": {
        "norad_id": 41601,
        "name": "SKYSAT-C1",
        "group": "resource",
        "lat": -68.0209189937378,
        "lon": -160.95790188500027,
        "alt_km": 474.39744517199324,
        "timestamp": "2025-12-26T11:25:44.876716+00:00",
        "meta_object_name": "SKYSAT-C1",
        "meta_object_id": "2016-040C",
        "meta_epoch": "2025-12-26T00:56:42.616032",
        "meta_mean_motion": 15.32828423,
        "meta_eccentricity": 8.32e-05,
        "meta_inclination": 96.9807,
        "meta_ra_of_asc_node": 36.3031,
        "meta_arg_of_pericenter": 314.1232,
        "meta_mean_anomaly": 45.9943,
        "meta_ephemeris_type": 0,
        "meta_classification_type": "U",
        "meta_norad_cat_id": 41601,
        "meta_element_set_no": 999,
        "meta_rev_at_epoch": 53131,
        "meta_bstar": 0.00029756,
        "meta_mean_motion_dot": 9.364e-05,
        "meta_mean_motion_ddot": 0,
        "tle_line1": "1 41601U 16040C   25360.03938213  .00009364  00000+0  29756-3 0  9991",
        "tle_line2": "2 41601  96.9807  36.3031 0000832 314.1232  45.9943 15.32828423531313"
      },
      "geometry": {
        "type": "Point",
        "coordinates": [
          -160.95790188500027,
          -68.0209189937378
        ]
      }
    },
    {
      "type": "Feature",
      "properties": {
        "norad_id": 41603,
        "name": "LAPAN-A3",
        "group": "resource",
        "lat": -21.41248622738941,
        "lon": 0.35270087535146316,
        "alt_km": 473.4587421053111,
        "timestamp": "2025-12-26T11:25:44.876725+00:00",
        "meta_object_name": "LAPAN-A3",
        "meta_object_id": "2016-040E",
        "meta_epoch": "2025-12-26T03:41:00.298752",
        "meta_mean_motion": 15.3166153,
        "meta_eccentricity": 0.0008647,
        "meta_inclination": 97.1436,
        "meta_ra_of_asc_node": 357.2225,
        "meta_arg_of_pericenter": 277.9042,
        "meta_mean_anomaly": 82.1218,
        "meta_ephemeris_type": 0,
        "meta_classification_type": "U",
        "meta_norad_cat_id": 41603,
        "meta_element_set_no": 999,
        "meta_rev_at_epoch": 52831,
        "meta_bstar": 0.00014746,
        "meta_mean_motion_dot": 4.438e-05,
        "meta_mean_motion_ddot": 0,
        "tle_line1": "1 41603U 16040E   25360.15347568  .00004438  00000+0  14746-3 0  9993",
        "tle_line2": "2 41603  97.1436 357.2225 0008647 277.9042  82.1218 15.31661530528310"
      },
      "geometry": {
        "type": "Point",
        "coordinates": [
          0.35270087535146316,
          -21.41248622738941
        ]
      }
    },
    {
      "type": "Feature",
      "properties": {
        "norad_id": 41604,
        "name": "BIROS",
        "group": "resource",
        "lat": -74.91499058398061,
        "lon": 59.91134546471169,
        "alt_km": 297.14667955164896,
        "timestamp": "2025-12-26T11:25:44.876734+00:00",
        "meta_object_name": "BIROS",
        "meta_object_id": "2016-040F",
        "meta_epoch": "2025-12-26T01:12:43.306272",
        "meta_mean_motion": 15.95194722,
        "meta_eccentricity": 0.0003999,
        "meta_inclination": 97.0651,
        "meta_ra_of_asc_node": 32.0679,
        "meta_arg_of_pericenter": 121.8836,
        "meta_mean_anomaly": 238.283,
        "meta_ephemeris_type": 0,
        "meta_classification_type": "U",
        "meta_norad_cat_id": 41604,
        "meta_element_set_no": 999,
        "meta_rev_at_epoch": 53084,
        "meta_bstar": 0.00059209,
        "meta_mean_motion_dot": 0.00229911,
        "meta_mean_motion_ddot": 2.2393e-05,
        "tle_line1": "1 41604U 16040F   25360.05050123  .00229911  22393-4  59209-3 0  9993",
        "tle_line2": "2 41604  97.0651  32.0679 0003999 121.8836 238.2830 15.95194722530842"
      },
      "geometry": {
        "type": "Point",
        "coordinates": [
          59.91134546471169,
          -74.91499058398061
        ]
      }
    },
    {
      "type": "Feature",
      "properties": {
        "norad_id": 41727,
        "name": "GAOFEN-3",
        "group": "resource",
        "lat": 22.634619119591328,
        "lon": 2.3186682938414545,
        "alt_km": 750.1392024349398,
        "timestamp": "2025-12-26T11:25:44.876743+00:00",
        "meta_object_name": "GAOFEN-3",
        "meta_object_id": "2016-049A",
        "meta_epoch": "2025-12-26T04:39:46.941984",
        "meta_mean_motion": 14.42217253,
        "meta_eccentricity": 0.0001087,
        "meta_inclination": 98.4039,
        "meta_ra_of_asc_node": 5.5751,
        "meta_arg_of_pericenter": 55.3254,
        "meta_mean_anomaly": 304.8038,
        "meta_ephemeris_type": 0,
        "meta_classification_type": "U",
        "meta_norad_cat_id": 41727,
        "meta_element_set_no": 999,
        "meta_rev_at_epoch": 49371,
        "meta_bstar": 7.981e-05,
        "meta_mean_motion_dot": 2.2e-06,
        "meta_mean_motion_ddot": 0,
        "tle_line1": "1 41727U 16049A   25360.19429331  .00000220  00000+0  79810-4 0  9991",
        "tle_line2": "2 41727  98.4039   5.5751 0001087  55.3254 304.8038 14.42217253493710"
      },
      "geometry": {
        "type": "Point",
        "coordinates": [
          2.3186682938414545,
          22.634619119591328
        ]
      }
    },
    {
      "type": "Feature",
      "properties": {
        "norad_id": 41771,
        "name": "SKYSAT-C4",
        "group": "resource",
        "lat": -54.809661624776346,
        "lon": 34.93909442840356,
        "alt_km": 447.19744853642896,
        "timestamp": "2025-12-26T11:25:44.876752+00:00",
        "meta_object_name": "SKYSAT-C4",
        "meta_object_id": "2016-058B",
        "meta_epoch": "2025-12-26T00:46:17.167296",
        "meta_mean_motion": 15.42627652,
        "meta_eccentricity": 0.000262,
        "meta_inclination": 96.9364,
        "meta_ra_of_asc_node": 24.5747,
        "meta_arg_of_pericenter": 122.1279,
        "meta_mean_anomaly": 238.0225,
        "meta_ephemeris_type": 0,
        "meta_classification_type": "U",
        "meta_norad_cat_id": 41771,
        "meta_element_set_no": 999,
        "meta_rev_at_epoch": 51872,
        "meta_bstar": 0.00035001,
        "meta_mean_motion_dot": 0.00015166,
        "meta_mean_motion_ddot": 0,
        "tle_line1": "1 41771U 16058B   25360.03214314  .00015166  00000+0  35001-3 0  9994",
        "tle_line2": "2 41771  96.9364  24.5747 0002620 122.1279 238.0225 15.42627652518727"
      },
      "geometry": {
        "type": "Point",
        "coordinates": [
          34.93909442840356,
          -54.809661624776346
        ]
      }
    },
    {
      "type": "Feature",
      "properties": {
        "norad_id": 41772,
        "name": "SKYSAT-C5",
        "group": "resource",
        "lat": 12.959754952166668,
        "lon": -134.7095516676477,
        "alt_km": 463.33895902987024,
        "timestamp": "2025-12-26T11:25:44.876762+00:00",
        "meta_object_name": "SKYSAT-C5",
        "meta_object_id": "2016-058C",
        "meta_epoch": "2025-12-26T02:52:36.392160",
        "meta_mean_motion": 15.3411733,
        "meta_eccentricity": 0.0004043,
        "meta_inclination": 97.0738,
        "meta_ra_of_asc_node": 43.3114,
        "meta_arg_of_pericenter": 226.167,
        "meta_mean_anomaly": 133.924,
        "meta_ephemeris_type": 0,
        "meta_classification_type": "U",
        "meta_norad_cat_id": 41772,
        "meta_element_set_no": 999,
        "meta_rev_at_epoch": 51721,
        "meta_bstar": 0.00028335,
        "meta_mean_motion_dot": 9.284e-05,
        "meta_mean_motion_ddot": 0,
        "tle_line1": "1 41772U 16058C   25360.11986565  .00009284  00000+0  28335-3 0  9994",
        "tle_line2": "2 41772  97.0738  43.3114 0004043 226.1670 133.9240 15.34117330517214"
      },
      "geometry": {
        "type": "Point",
        "coordinates": [
          -134.7095516676477,
          12.959754952166668
        ]
      }
    }
  ]
}